[{"OBJECT_NAME":"STARLINK-11339 [DTC]","OBJECT_ID":"2024-195E","EPOCH":"2026-03-09T07:31:47.337312","MEAN_MOTION":15.69712854,"ECCENTRICITY":6.555e-5,"INCLINATION":53.1585,"RA_OF_ASC_NODE":28.1813,"ARG_OF_PERICENTER":98.2317,"MEAN_ANOMALY":261.8776,"EPHEMERIS_TYPE":0,"CLASSIFICATION_TYPE":"U","NORAD_CAT_ID":61691,"ELEMENT_SET_NO":999,"REV_AT_EPOCH":7897,"BSTAR":-9.659e-9,"MEAN_MOTION_DOT":-5.89e-6,"MEAN_MOTION_DDOT":0},{"OBJECT_NAME":"CZ-2F DEB","OBJECT_ID":"2026-024E","EPOCH":"2026-03-09T06:46:05.636352","MEAN_MOTION":15.25893319,"ECCENTRICITY":0.0230643,"INCLINATION":50.3206,"RA_OF_ASC_NODE":20.6889,"ARG_OF_PERICENTER":278.3013,"MEAN_ANOMALY":79.1857,"EPHEMERIS_TYPE":0,"CLASSIFICATION_TYPE":"U","NORAD_CAT_ID":67718,"ELEMENT_SET_NO":999,"REV_AT_EPOCH":457,"BSTAR":0.0044193489,"MEAN_MOTION_DOT":0.00260029,"MEAN_MOTION_DDOT":0}]
